#cP2022  4  9  6  0  0.00000000     576 d+D   IGb14 EXT AIUB
## 2204 540000.00000000   300.00000000 59678 0.2500000000000
+   76   G01G02G03G04G05G06G07G08G09G10G11G12G13G14G15G16G17
+        G18G19G20G22G23G24G25G26G27G28G29G30G31G32R01R02R03
+        R04R05R07R08R09R12R13R14R15R17R18R19R20R21R22R24E01
+        E02E03E04E05E07E08E09E10E11E12E13E14E15E18E19E21E24
+        E25E26E27E30E31E33E34E36  0  0  0  0  0  0  0  0  0
++         6  7  6  7  7  6  7  7  6  6  8  7  7  7  7  8  8
++         8  7  7  7  6  7  6  6  6  8  7  6  7  6  7  7  6
++         7  7  6  6  7  8  9  7  8  8  8  8  9  8  8  8  6
++         6  6  6  6  6  6  7  7  8  8  6  7  6  6  7  7  7
++         6  6  7  7  6  7  7  7  0  0  0  0  0  0  0  0  0
%c M  cc GPS ccc cccc cccc cccc cccc ccccc ccccc ccccc ccccc
%c cc cc ccc ccc cccc cccc cccc cccc ccccc ccccc ccccc ccccc
%f  1.2500000  1.025000000  0.00000000000  0.000000000000000
%f  0.0000000  0.000000000  0.00000000000  0.000000000000000
%i    0    0    0    0      0      0      0      0         0
%i    0    0    0    0      0      0      0      0         0
/* Center for Orbit Determination in Europe (CODE)          
/* Ultra-rapid GRE orbits starting year-day 22099 06 hour   
/* Observed/predicted: 25/23 hours (data used up to 100G)   
/* PCV:IGS14      OL/AL:FES2014b NONE     YN ORB:CoN CLK:BRD
*  2022  4  9 11 30  0.00000000
PG01 -21080.829235 -14241.219619  -8530.103686    389.080470
PG02   1246.761961  16030.259001  21777.144719   -653.005684
PG03 -12710.511001 -18730.295064  13882.595373   -199.454772
PG04 -13293.458186  -8589.268071  21349.175539   -177.328303
PG05   5305.058407  25937.871835    178.511351    -77.675639
PG06 -15176.890082   8489.186477  20166.775202    260.487025
PG07 -25505.151298  -4901.838637  -6297.925867    319.611350
PG08  -4401.892147 -15505.890371 -21081.804529    -63.214067
PG09 -20533.384989   2015.909319  16676.187924   -344.835089
PG10  12437.387389 -10762.722434 -20641.938305   -373.485733
PG11    562.371413  16224.755688  21020.543986    -47.391435
PG12   9627.191516  22140.532759  10939.310695   -197.685648
PG13  -5508.536039  18342.542508 -18481.101165    291.126218
PG14 -13619.433684   9536.447964 -20701.130604   -101.170196
PG15   7258.833715  15098.516319 -20969.580621    -70.299789
PG16    733.902449 -25963.557891   3920.597814   -489.844690
PG17 -22293.043917  14229.742251  -2308.370242    598.102150
PG18  25241.357183   5052.541384  -6765.593815    199.823583
PG19 -20184.669252  16547.275090   4052.308852    142.080058
PG20    330.024374  24615.165917  10270.095275    515.910319
PG22  17578.245403 -18495.149722   7432.100742    240.606129
PG23  15439.847467   1543.758386 -21576.858500    -13.598872
PG24  18771.262806  14825.903674 -12267.950248    258.835223
PG25  15367.435694   9833.374623  19109.556819    309.642683
PG26   6545.193389 -20789.796364  14879.183099    197.299916
PG27   7494.191813 -20033.648210 -15689.783254    178.641708
PG28  -9785.053252  18366.424763 -16121.620118    372.869723
PG29  19816.589969    486.174766  17657.968334   -501.084385
PG30 -22432.332303   2336.214335 -14147.640284   -522.940521
PG31  13466.707082 -10190.648432  20478.386099   -172.653332
PG32  20549.160613 -16646.283148   -584.051604   -101.760476
PR01  -1609.360836  21075.365672 -14261.693800      7.666649
PR02   9623.323621   5038.799183 -23031.968492    514.978947
PR03  14500.162827 -12623.910216 -16685.003211     54.628989
PR04  11203.640645 -22881.539732  -1145.091983    135.883136
PR05   1814.037562 -20518.669967  15047.435484     90.855752
PR07 -14588.229926  13263.324634  16255.317869     33.680326
PR08 -11154.762541  22927.662443   1165.300714    -64.534498
PR09 -17689.275694 -15009.714650 -10674.908108     48.839477
PR12  11535.360783  21683.256904  -6904.849773     17.845072
PR13  17441.884968  15921.355590   9625.076310    -20.631759
PR14  13062.986282    -50.490057  21913.454367     76.333639
PR15   1235.768448 -15153.863242  20496.649238     96.945092
PR17  24685.453596  -4378.470950  -4785.392123    516.112922
PR18  14035.284270  -9664.536477 -18943.711043    113.008144
PR19  -2429.338296 -10190.147494 -23259.538750   -184.707922
PR20 -21383.428819  -4682.605857 -13131.947467    -68.270232
PR21 -24234.006185   4860.702654   6265.345641   -291.938920
PR22 -13419.614141   9693.397384  19431.125592   -175.849579
PR24  21880.139405   4150.631172  12458.125017     88.251213
PE01  17865.306894  12328.441768  20123.944100   -612.997651
PE02 -17881.912365 -12128.111165 -20230.051006    291.709434
PE03 -20346.454858   -554.769381  21490.623000   -546.165924
PE04  23200.493291 -16731.430817  -7605.207876  -1002.744084
PE05  -5472.965333 -17833.543187  22990.106807   -192.490492
PE07 -12378.240484  24486.516984 -11084.704835   -656.837936
PE08 -23039.083492  17060.332360   7351.942769   -509.363548
PE09  12189.917498 -24501.696601  11306.513886   -478.237391
PE10  16253.746777 -10977.318885 -22174.710784   -505.611244
PE11   5092.377515 -15355.891341 -24795.385238   4006.896863
PE12  24275.105793  -5115.331759 -16128.835916   4671.619548
PE13  -5862.847185  15070.382300  24796.623472    427.898286
PE14  24150.948496 -17478.987736     73.882131  -1807.876960
PE15 -24376.620286   5023.375061  16038.118219    752.731043
PE18 -24203.353555   6356.863950 -10494.176343  -1585.242207
PE19  18957.558231   2853.714500 -22541.623296  -2721.753729
PE21  11780.775318  26595.130316   5495.648321   -727.431461
PE24   2477.254262 -25889.506955  14093.090852   -551.405616
PE25 -11639.419952 -26699.785057  -5252.511034   -569.779732
PE26  16827.831052  16168.656767  18208.699565  -1009.968474
PE27  -1468.556812  26491.816104 -13137.536143   -272.253912
PE30 -14299.298691   9677.930209 -24058.381573   -416.587369
PE31  13749.479582 -10791.200096  23889.592633   -494.793046
PE33  28424.988100   7944.780201   2144.726951   -457.767039
PE34 -28495.466050  -7776.769110  -1945.010010   -511.151644
PE36 -15990.661294 -16201.293125 -18926.650294   -357.187374
EOF
